
{
"type": "FeatureCollection",
"name": "spoorlijnen2",
"crs": { "type": "name", "properties": { "name": "urn:ogc:def:crs:OGC:1.3:CRS84" } },
"features": [
{ "type": "Feature", "properties": { "id": "way/5074516" }, "geometry": { "type": "LineString", "coordinates": [ [ 7.0250416, 52.308508 ], [ 7.0328201, 52.3087922 ] ] } },
{ "type": "Feature", "properties": { "id": "way/6299545" }, "geometry": { "type": "LineString", "coordinates": [ [ 6.806106, 53.4504445 ], [ 6.7990623, 53.4515508 ] ] } },
{ "type": "Feature", "properties": { "id": "way/6299548" }, "geometry": { "type": "LineString", "coordinates": [ [ 6.7952903, 53.4510472 ], [ 6.795885, 53.4516091 ] ] } },
{ "type": "Feature", "properties": { "id": "way/6299564" }, "geometry": { "type": "LineString", "coordinates": [ [ 6.8191845, 53.4483976 ], [ 6.8180684, 53.4485724 ] ] } },
{ "type": "Feature", "properties": { "id": "way/6299568" }, "geometry": { "type": "LineString", "coordinates": [ [ 6.7873272, 53.4440149 ], [ 6.7874472, 53.4441082 ] ] } },
{ "type": "Feature", "properties": { "id": "way/6299625" }, "geometry": { "type": "LineString", "coordinates": [ [ 6.560744, 53.3861307 ], [ 6.5608582, 53.3862104 ] ] } },
{ "type": "Feature", "properties": { "id": "way/6299627" }, "geometry": { "type": "LineString", "coordinates": [ [ 6.5229627, 53.3698171 ], [ 6.5230072, 53.369851 ] ] } },
{ "type": "Feature", "properties": { "id": "way/6299632" }, "geometry": { "type": "LineString", "coordinates": [ [ 6.5195144, 53.365046 ], [ 6.519538, 53.3651658 ] ] } },
{ "type": "Feature", "properties": { "id": "way/6299668" }, "geometry": { "type": "LineString", "coordinates": [ [ 6.9136372, 53.3329535 ], [ 6.9143611, 53.3330267 ] ] } },
{ "type": "Feature", "properties": { "id": "way/6299675" }, "geometry": { "type": "LineString", "coordinates": [ [ 6.9067019, 53.3319426 ], [ 6.9072631, 53.3320259 ] ] } },
{ "type": "Feature", "properties": { "id": "way/6299684" }, "geometry": { "type": "LineString", "coordinates": [ [ 6.8117059, 53.3297696 ], [ 6.8115938, 53.3297779 ] ] } },
{ "type": "Feature", "properties": { "id": "way/6299689" }, "geometry": { "type": "LineString", "coordinates": [ [ 6.8818296, 53.328244 ], [ 6.8818996, 53.3282544 ] ] } },
{ "type": "Feature", "properties": { "id": "way/6299697" }, "geometry": { "type": "LineString", "coordinates": [ [ 6.6943777, 53.3277493 ], [ 6.6858944, 53.3260134 ] ] } },
{ "type": "Feature", "properties": { "id": "way/6299700" }, "geometry": { "type": "LineString", "coordinates": [ [ 6.8543689, 53.3264443 ], [ 6.8544871, 53.3264351 ] ] } },
{ "type": "Feature", "properties": { "id": "way/6299723" }, "geometry": { "type": "LineString", "coordinates": [ [ 6.6536685, 53.3194186 ], [ 6.6538256, 53.319454 ] ] } },
{ "type": "Feature", "properties": { "id": "way/6299738" }, "geometry": { "type": "LineString", "coordinates": [ [ 6.6007357, 53.3085407 ], [ 6.6230989, 53.313136 ] ] } },
{ "type": "Feature", "properties": { "id": "way/6299739" }, "geometry": { "type": "LineString", "coordinates": [ [ 6.6006025, 53.3085142 ], [ 6.6007357, 53.3085407 ] ] } },
{ "type": "Feature", "properties": { "id": "way/6299769" }, "geometry": { "type": "LineString", "coordinates": [ [ 6.540484, 53.292139 ], [ 6.5405666, 53.2932132 ] ] } },
{ "type": "Feature", "properties": { "id": "way/6299777" }, "geometry": { "type": "LineString", "coordinates": [ [ 6.540484, 53.292139 ], [ 6.540466, 53.2932157 ] ] } },
{ "type": "Feature", "properties": { "id": "way/6299811" }, "geometry": { "type": "LineString", "coordinates": [ [ 6.2212843, 53.2561575 ], [ 6.2207576, 53.2561572 ] ] } },
{ "type": "Feature", "properties": { "id": "way/6299821" }, "geometry": { "type": "LineString", "coordinates": [ [ 6.2608187, 53.2560079 ], [ 6.260727, 53.2560083 ] ] } },
{ "type": "Feature", "properties": { "id": "way/6299826" }, "geometry": { "type": "LineString", "coordinates": [ [ 6.3127602, 53.2557914 ], [ 6.3126252, 53.255792 ] ] } },
{ "type": "Feature", "properties": { "id": "way/6299832" }, "geometry": { "type": "LineString", "coordinates": [ [ 6.355615, 53.2555952 ], [ 6.3557528, 53.2555945 ] ] } },
{ "type": "Feature", "properties": { "id": "way/6299857" }, "geometry": { "type": "LineString", "coordinates": [ [ 6.4167847, 53.2449598 ], [ 6.4164919, 53.2450546 ] ] } },
{ "type": "Feature", "properties": { "id": "way/6299859" }, "geometry": { "type": "LineString", "coordinates": [ [ 6.0210909, 53.2442684 ], [ 6.0201008, 53.2439785 ] ] } },
{ "type": "Feature", "properties": { "id": "way/6299864" }, "geometry": { "type": "LineString", "coordinates": [ [ 6.5585679, 53.2391004 ], [ 6.557277, 53.2418685 ] ] } },
{ "type": "Feature", "properties": { "id": "way/6299865" }, "geometry": { "type": "LineString", "coordinates": [ [ 6.5589907, 53.2380935 ], [ 6.5587904, 53.2385694 ] ] } },
{ "type": "Feature", "properties": { "id": "way/6299879" }, "geometry": { "type": "LineString", "coordinates": [ [ 6.5585193, 53.2327546 ], [ 6.5586853, 53.2331728 ] ] } },
{ "type": "Feature", "properties": { "id": "way/6299896" }, "geometry": { "type": "LineString", "coordinates": [ [ 6.5530759, 53.2276607 ], [ 6.5539963, 53.2282377 ] ] } },
{ "type": "Feature", "properties": { "id": "way/6299931" }, "geometry": { "type": "LineString", "coordinates": [ [ 6.4896592, 53.2129321 ], [ 6.489369, 53.2129576 ] ] } },
{ "type": "Feature", "properties": { "id": "way/6299941" }, "geometry": { "type": "LineString", "coordinates": [ [ 6.5585221, 53.2105322 ], [ 6.5572383, 53.210526 ] ] } },
{ "type": "Feature", "properties": { "id": "way/6299950" }, "geometry": { "type": "LineString", "coordinates": [ [ 6.5683866, 53.2106335 ], [ 6.5686438, 53.2106582 ] ] } },
{ "type": "Feature", "properties": { "id": "way/6299953" }, "geometry": { "type": "LineString", "coordinates": [ [ 6.5607275, 53.2106056 ], [ 6.5611517, 53.2106187 ] ] } },
{ "type": "Feature", "properties": { "id": "way/6299956" }, "geometry": { "type": "LineString", "coordinates": [ [ 6.5602798, 53.2105913 ], [ 6.5607275, 53.2106056 ] ] } },
{ "type": "Feature", "properties": { "id": "way/6299957" }, "geometry": { "type": "LineString", "coordinates": [ [ 6.5607874, 53.2105101 ], [ 6.5601853, 53.2105584 ] ] } },
{ "type": "Feature", "properties": { "id": "way/6299958" }, "geometry": { "type": "LineString", "coordinates": [ [ 6.5602798, 53.2105913 ], [ 6.5595654, 53.2105676 ] ] } },
{ "type": "Feature", "properties": { "id": "way/6299959" }, "geometry": { "type": "LineString", "coordinates": [ [ 6.5595355, 53.2105667 ], [ 6.5595654, 53.2105676 ] ] } },
{ "type": "Feature", "properties": { "id": "way/6299960" }, "geometry": { "type": "LineString", "coordinates": [ [ 6.5602798, 53.2105913 ], [ 6.5633135, 53.2105231 ] ] } },
{ "type": "Feature", "properties": { "id": "way/6300022" }, "geometry": { "type": "LineString", "coordinates": [ [ 5.8297441, 53.20062 ], [ 5.8302639, 53.2006806 ] ] } },
{ "type": "Feature", "properties": { "id": "way/6300127" }, "geometry": { "type": "LineString", "coordinates": [ [ 5.686133, 53.1838043 ], [ 5.7130077, 53.1869653 ] ] } },
{ "type": "Feature", "properties": { "id": "way/6300131" }, "geometry": { "type": "LineString", "coordinates": [ [ 7.2043385, 53.1859301 ], [ 7.2075484, 53.1869095 ], [ 7.2103275, 53.1875277 ] ] } },
{ "type": "Feature", "properties": { "id": "way/6300134" }, "geometry": { "type": "LineString", "coordinates": [ [ 5.7464183, 53.1858669 ], [ 5.7465507, 53.1859765 ] ] } },
{ "type": "Feature", "properties": { "id": "way/6300136" }, "geometry": { "type": "LineString", "coordinates": [ [ 6.6188074, 53.1766183 ], [ 6.6193632, 53.1783768 ], [ 6.6207802, 53.1804615 ], [ 6.6226243, 53.1820384 ], [ 6.6248537, 53.1833055 ] ] } },
{ "type": "Feature", "properties": { "id": "way/6300139" }, "geometry": { "type": "LineString", "coordinates": [ [ 7.2028927, 53.185483 ], [ 7.2036447, 53.1857156 ] ] } },
{ "type": "Feature", "properties": { "id": "way/6300152" }, "geometry": { "type": "LineString", "coordinates": [ [ 5.7749256, 53.1837446 ], [ 5.7746503, 53.1841909 ] ] } },
{ "type": "Feature", "properties": { "id": "way/6300153" }, "geometry": { "type": "LineString", "coordinates": [ [ 6.6420534, 53.1855719 ], [ 6.6422757, 53.1855062 ] ] } },
{ "type": "Feature", "properties": { "id": "way/6300155" }, "geometry": { "type": "LineString", "coordinates": [ [ 5.7749643, 53.1836827 ], [ 5.7749256, 53.1837446 ] ] } },
{ "type": "Feature", "properties": { "id": "way/6300156" }, "geometry": { "type": "LineString", "coordinates": [ [ 5.6860279, 53.1837919 ], [ 5.686133, 53.1838043 ] ] } },
{ "type": "Feature", "properties": { "id": "way/6300172" }, "geometry": { "type": "LineString", "coordinates": [ [ 5.5368189, 53.1796957 ], [ 5.5369058, 53.1797274 ] ] } },
{ "type": "Feature", "properties": { "id": "way/6300181" }, "geometry": { "type": "LineString", "coordinates": [ [ 5.5211337, 53.1746991 ], [ 5.5214446, 53.1747405 ] ] } },
{ "type": "Feature", "properties": { "id": "way/6300184" }, "geometry": { "type": "LineString", "coordinates": [ [ 5.5963449, 53.173617 ], [ 5.5960887, 53.1736323 ] ] } },
{ "type": "Feature", "properties": { "id": "way/6300213" }, "geometry": { "type": "LineString", "coordinates": [ [ 5.4232617, 53.1703422 ], [ 5.4291654, 53.1705985 ] ] } },
{ "type": "Feature", "properties": { "id": "way/6300223" }, "geometry": { "type": "LineString", "coordinates": [ [ 6.9427784, 53.1669106 ], [ 6.9429818, 53.1669309 ] ] } },
{ "type": "Feature", "properties": { "id": "way/6300224" }, "geometry": { "type": "LineString", "coordinates": [ [ 6.8956624, 53.1610819 ], [ 6.9013537, 53.1617738 ], [ 6.9075846, 53.1631591 ], [ 6.9109849, 53.1637215 ], [ 6.9427784, 53.1669106 ] ] } },
{ "type": "Feature", "properties": { "id": "way/6300271" }, "geometry": { "type": "LineString", "coordinates": [ [ 6.8950889, 53.1610218 ], [ 6.8956624, 53.1610819 ] ] } },
{ "type": "Feature", "properties": { "id": "way/6300272" }, "geometry": { "type": "LineString", "coordinates": [ [ 6.8936029, 53.1608757 ], [ 6.8950889, 53.1610218 ] ] } },
{ "type": "Feature", "properties": { "id": "way/6300275" }, "geometry": { "type": "LineString", "coordinates": [ [ 6.8933943, 53.1608541 ], [ 6.8936029, 53.1608757 ] ] } },
{ "type": "Feature", "properties": { "id": "way/6300276" }, "geometry": { "type": "LineString", "coordinates": [ [ 6.8749659, 53.1600982 ], [ 6.8759318, 53.160236 ] ] } },
{ "type": "Feature", "properties": { "id": "way/6300277" }, "geometry": { "type": "LineString", "coordinates": [ [ 6.7394688, 53.1608228 ], [ 6.7398414, 53.1608112 ] ] } },
{ "type": "Feature", "properties": { "id": "way/6300279" }, "geometry": { "type": "LineString", "coordinates": [ [ 6.7398382, 53.1608447 ], [ 6.7394649, 53.1608575 ] ] } },
{ "type": "Feature", "properties": { "id": "way/6300283" }, "geometry": { "type": "LineString", "coordinates": [ [ 6.8759318, 53.160236 ], [ 6.8733384, 53.1599759 ] ] } },
{ "type": "Feature", "properties": { "id": "way/6300284" }, "geometry": { "type": "LineString", "coordinates": [ [ 6.7542494, 53.1603201 ], [ 6.7545396, 53.1603102 ] ] } },
{ "type": "Feature", "properties": { "id": "way/6300300" }, "geometry": { "type": "LineString", "coordinates": [ [ 6.8733384, 53.1599759 ], [ 6.8727494, 53.1599172 ] ] } },
{ "type": "Feature", "properties": { "id": "way/6300303" }, "geometry": { "type": "LineString", "coordinates": [ [ 6.8615839, 53.1587633 ], [ 6.8601989, 53.1586598 ] ] } },
{ "type": "Feature", "properties": { "id": "way/6300304" }, "geometry": { "type": "LineString", "coordinates": [ [ 6.8633706, 53.1589744 ], [ 6.8629631, 53.1589351 ] ] } },
{ "type": "Feature", "properties": { "id": "way/6300305" }, "geometry": { "type": "LineString", "coordinates": [ [ 6.8601989, 53.1586598 ], [ 6.8585171, 53.158491 ] ] } },
{ "type": "Feature", "properties": { "id": "way/6300306" }, "geometry": { "type": "LineString", "coordinates": [ [ 6.7963633, 53.1588842 ], [ 6.7964693, 53.1588806 ] ] } },
{ "type": "Feature", "properties": { "id": "way/6300307" }, "geometry": { "type": "LineString", "coordinates": [ [ 6.7964682, 53.158913 ], [ 6.7963601, 53.1589167 ] ] } },
{ "type": "Feature", "properties": { "id": "way/6300347" }, "geometry": { "type": "LineString", "coordinates": [ [ 5.7245453, 53.1496312 ], [ 5.7245766, 53.1496868 ] ] } },
{ "type": "Feature", "properties": { "id": "way/6300353" }, "geometry": { "type": "LineString", "coordinates": [ [ 6.7023108, 53.1675223 ], [ 6.7020855, 53.16759 ] ] } },
{ "type": "Feature", "properties": { "id": "way/6300371" }, "geometry": { "type": "LineString", "coordinates": [ [ 7.0411091, 53.1385278 ], [ 7.0416561, 53.1384609 ] ] } },
{ "type": "Feature", "properties": { "id": "way/6300389" }, "geometry": { "type": "LineString", "coordinates": [ [ 7.0411091, 53.1385278 ], [ 7.040442, 53.138607 ] ] } },
{ "type": "Feature", "properties": { "id": "way/6300390" }, "geometry": { "type": "LineString", "coordinates": [ [ 6.8747593, 53.1600777 ], [ 6.8733384, 53.1599759 ] ] } },
{ "type": "Feature", "properties": { "id": "way/6300411" }, "geometry": { "type": "LineString", "coordinates": [ [ 6.6273302, 53.1227069 ], [ 6.6274348, 53.1228982 ] ] } },
{ "type": "Feature", "properties": { "id": "way/6300444" }, "geometry": { "type": "LineString", "coordinates": [ [ 6.8833313, 53.1022061 ], [ 6.8835146, 53.1023717 ] ] } },
{ "type": "Feature", "properties": { "id": "way/6300450" }, "geometry": { "type": "LineString", "coordinates": [ [ 6.8763259, 53.0922389 ], [ 6.8763496, 53.0922751 ] ] } },
{ "type": "Feature", "properties": { "id": "way/6300473" }, "geometry": { "type": "LineString", "coordinates": [ [ 6.84962, 53.0525069 ], [ 6.8497578, 53.0527084 ] ] } },
{ "type": "Feature", "properties": { "id": "way/6300480" }, "geometry": { "type": "LineString", "coordinates": [ [ 5.8580296, 53.0173873 ], [ 5.8462903, 53.0412419 ] ] } },
{ "type": "Feature", "properties": { "id": "way/6300483" }, "geometry": { "type": "LineString", "coordinates": [ [ 6.8489671, 53.049351 ], [ 6.8487708, 53.0498149 ] ] } }
]
}
